     2.11           N: GPS NAV DATA                         RINEX VERSION / TYPE
CONVBIN 2.4.3                           20190416 101342 UTC PGM / RUN BY / DATE 
log: ../ubx/2019-0217-230342.ubx                            COMMENT             
format: u-blox                                              COMMENT             
                                                            END OF HEADER       
15 19  2 18 12  0  0.0 -.327300280333E-03  .170530256582E-11  .000000000000E+00
     .560000000000E+02  .498125000000E+02  .568666544387E-08  .107008159738E+01
     .287964940071E-05  .112208896317E-01  .834837555885E-05  .515363546181E+04
     .129600000000E+06 -.968575477600E-07  .772716467428E+00  .162050127983E-06
     .928083565194E+00  .203218750000E+03  .762956430986E+00 -.871714881852E-08
     .490734726785E-09  .100000000000E+01  .204100000000E+04  .000000000000E+00
     .240000000000E+01  .000000000000E+00 -.107102096081E-07  .560000000000E+02
     .128976000000E+06  .400000000000E+01
 5 19  2 18 11 59 44.0  .110222026706E-05  .113686837722E-12  .000000000000E+00
     .900000000000E+01 -.934687500000E+02  .449661587353E-08  .271801554055E+01
    -.485032796860E-05  .556329160463E-02  .124033540487E-04  .515364074898E+04
     .129584000000E+06 -.242143869400E-07 -.207385535903E+00 -.912696123123E-07
     .949750918012E+00  .136000000000E+03  .713556560621E+00 -.783461205733E-08
     .136077096729E-09  .100000000000E+01  .204100000000E+04  .000000000000E+00
     .240000000000E+01  .000000000000E+00 -.111758708954E-07  .900000000000E+01
     .128976000000E+06  .400000000000E+01
24 19  2 18 12  0  0.0 -.623208470643E-04 -.454747350886E-12  .000000000000E+00
     .550000000000E+02 -.338125000000E+02  .554201656152E-08  .777815504966E-01
    -.173039734364E-05  .818488374352E-02  .543706119061E-05  .515371981430E+04
     .129600000000E+06 -.186264514923E-08  .186292386477E+01  .894069671631E-07
     .938940064588E+00  .259562500000E+03  .596012427133E+00 -.870286250916E-08
    -.591453207829E-09  .100000000000E+01  .204100000000E+04  .000000000000E+00
     .240000000000E+01  .000000000000E+00  .279396772385E-08  .550000000000E+02
     .129006000000E+06  .400000000000E+01
